NORAD_CAT_ID,OBJECT_NAME,OBJECT_TYPE,EPOCH,MEAN_MOTION,ECCENTRICITY,INCLINATION,RA_OF_ASC_NODE,ARG_OF_PERICENTER,MEAN_ANOMALY,BSTAR,MEAN_MOTION_DOT,MEAN_MOTION_DDOT,TLE_LINE0,TLE_LINE1,TLE_LINE2,SEMIMAJOR_AXIS,PERIOD,APOGEE,PERIGEE,DECAYED
51805.0,STARLINK-3605,PAYLOAD,2023-05-10 13:05:12,15.08834304,5.65e-05,53.2172,291.5849,103.8238,256.2817,0.00020267,2.939e-05,0.0,0 STARLINK-3605,1 51805U 22017AP  23130.54528845  .00002939  00000-0  20267-3 0  9994,2 51805  53.2172 291.5849 0000565 103.8238 256.2817 15.08834304 68124,6917.898,95.438,540.154,539.372,0.0
51805.0,STARLINK-3605,PAYLOAD,2023-05-10 17:51:22,15.08852952,9.12e-05,53.2169,290.6939,92.0754,268.0343,0.00088469,0.00013825,0.0,0 STARLINK-3605,1 51805U 22017AP  23130.74400643  .00013825  00000-0  88469-3 0  9995,2 51805  53.2169 290.6939 0000912  92.0754 268.0343 15.08852952 68155,6917.841,95.437,540.337,539.075,0.0
51805.0,STARLINK-3605,PAYLOAD,2023-05-10 19:26:45,15.08857927,9.27e-05,53.2172,290.3965,90.7049,269.4049,0.0017918,0.00028358,0.0,0 STARLINK-3605,1 51805U 22017AP  23130.81024845  .00028358  00000-0  17918-2 0  9996,2 51805  53.2172 290.3965 0000927  90.7049 269.4049 15.08857927 68169,6917.826,95.436,540.332,539.049,0.0
51805.0,STARLINK-3605,PAYLOAD,2023-05-11 12:55:59,15.08850237,8.57e-05,53.2165,287.1252,113.8723,246.2359,0.00050445,7.752e-05,0.0,0 STARLINK-3605,1 51805U 22017AP  23131.53888658  .00007752  00000-0  50445-3 0  9994,2 51805  53.2165 287.1252 0000857 113.8723 246.2359 15.08850237 68278,6917.849,95.437,540.307,539.121,0.0
51805.0,STARLINK-3605,PAYLOAD,2023-05-11 17:42:09,15.08847339,0.0001162,53.2166,286.2329,77.2526,282.8596,0.00033093,4.984e-05,0.0,0 STARLINK-3605,1 51805U 22017AP  23131.73760813  .00004984  00000-0  33093-3 0  9992,2 51805  53.2166 286.2329 0001162  77.2526 282.8596 15.08847339 68300,6917.858,95.437,540.527,538.919,0.0
51805.0,STARLINK-3605,PAYLOAD,2023-05-12 03:14:28,15.08845611,9.07e-05,53.2164,284.4489,98.122,261.9875,0.00021347,3.112e-05,0.0,0 STARLINK-3605,1 51805U 22017AP  23132.13504655  .00003112  00000-0  21347-3 0  9998,2 51805  53.2164 284.4489 0000907  98.1220 261.9875 15.08845611 68369,6917.863,95.437,540.356,539.101,0.0
51805.0,STARLINK-3605,PAYLOAD,2023-05-12 17:32:56,15.08841816,0.0001021,53.2154,281.7738,90.3536,269.7573,0.00041173,6.271e-05,0.0,0 STARLINK-3605,1 51805U 22017AP  23132.73120989  .00006271  00000-0  41173-3 0  9996,2 51805  53.2154 281.7738 0001021  90.3536 269.7573 15.08841816 68451,6917.875,95.437,540.446,539.034,0.0
51805.0,STARLINK-3605,PAYLOAD,2023-05-13 17:23:43,15.08848474,0.0001045,53.2161,277.3113,90.5348,269.5764,0.00051058,7.849e-05,0.0,0 STARLINK-3605,1 51805U 22017AP  23133.72480871  .00007849  00000-0  51058-3 0  9990,2 51805  53.2161 277.3113 0001045  90.5348 269.5764 15.08848474 68600,6917.854,95.437,540.442,538.997,0.0
51805.0,STARLINK-3605,PAYLOAD,2023-05-14 02:56:02,15.08842481,0.000101,53.2166,275.5298,77.0792,283.0313,0.00035998,5.446e-05,0.0,0 STARLINK-3605,1 51805U 22017AP  23134.12224969  .00005446  00000-0  35998-3 0  9995,2 51805  53.2166 275.5298 0001010  77.0792 283.0313 15.08842481 68663,6917.873,95.437,540.437,539.039,0.0
51805.0,STARLINK-3605,PAYLOAD,2023-05-14 14:03:44,15.08836765,0.0001206,53.2165,273.4455,96.8138,263.2992,0.00014179,1.969e-05,0.0,0 STARLINK-3605,1 51805U 22017AP  23134.58593348  .00001969  00000-0  14179-3 0  9999,2 51805  53.2165 273.4455 0001206  96.8138 263.2992 15.08836765 68733,6917.89,95.438,540.59,538.921,0.0
51805.0,STARLINK-3605,PAYLOAD,2023-05-14 18:49:54,15.08837806,0.0001108,53.2161,272.5538,94.4387,265.6732,6.1193e-05,6.86e-06,0.0,0 STARLINK-3605,1 51805U 22017AP  23134.78465400  .00000686  00000-0  61193-4 0  9992,2 51805  53.2161 272.5538 0001108  94.4387 265.6732 15.08837806 68760,6917.887,95.438,540.519,538.986,0.0
51805.0,STARLINK-3605,PAYLOAD,2023-05-15 12:19:08,15.0884629,0.000115,53.2167,269.28,102.2044,257.9077,9.6887e-05,1.255e-05,0.0,0 STARLINK-3605,1 51805U 22017AP  23135.51329062  .00001255  00000-0  96887-4 0  9998,2 51805  53.2167 269.2800 0001150 102.2044 257.9077 15.08846290 68871,6917.861,95.437,540.522,538.931,0.0
51805.0,STARLINK-3605,PAYLOAD,2023-05-15 15:29:54,15.08848492,0.0001175,53.2169,268.6863,92.9954,267.1172,0.00011983,1.62e-05,0.0,0 STARLINK-3605,1 51805U 22017AP  23135.64576974  .00001620  00000-0  11983-3 0  9997,2 51805  53.2169 268.6863 0001175  92.9954 267.1172 15.08848492 68894,6917.854,95.437,540.532,538.907,0.0
51805.0,STARLINK-3605,PAYLOAD,2023-05-16 08:59:09,15.08836773,0.0001157,53.2167,265.4163,93.0163,267.0962,0.00012004,1.623e-05,0.0,0 STARLINK-3605,1 51805U 22017AP  23136.37441634  .00001623  00000-0  12004-3 0  9990,2 51805  53.2167 265.4163 0001157  93.0163 267.0962 15.08836773 69003,6917.89,95.438,540.556,538.955,0.0
51805.0,STARLINK-3605,PAYLOAD,2023-05-16 12:09:55,15.08836021,0.0001117,53.2165,264.8221,90.3555,269.7565,9.189e-05,1.175e-05,0.0,0 STARLINK-3605,1 51805U 22017AP  23136.50689664  .00001175  00000-0  91890-4 0  9995,2 51805  53.2165 264.8221 0001117  90.3555 269.7565 15.08836021 69026,6917.893,95.438,540.53,538.985,0.0
51805.0,STARLINK-3605,PAYLOAD,2023-05-17 13:36:06,15.08834083,0.0001041,53.2171,260.0655,87.9417,272.1694,0.00016634,2.36e-05,0.0,0 STARLINK-3605,1 51805U 22017AP  23137.56673784  .00002360  00000-0  16634-3 0  9997,2 51805  53.2171 260.0655 0001041  87.9417 272.1694 15.08834083 69181,6917.898,95.438,540.484,539.043,0.0
51805.0,STARLINK-3605,PAYLOAD,2023-05-18 13:26:53,15.08831378,0.0001068,53.217,255.6053,91.1138,268.9976,4.6531e-05,4.53e-06,0.0,0 STARLINK-3605,1 51805U 22017AP  23138.56034330  .00000453  00000-0  46531-4 0  9997,2 51805  53.2170 255.6053 0001068  91.1138 268.9976 15.08831378 69335,6917.907,95.438,540.511,539.033,0.0
51805.0,STARLINK-3605,PAYLOAD,2023-05-18 16:37:39,15.0883446,0.0001263,53.2188,255.013,104.3101,255.8032,0.00010578,1.396e-05,0.0,0 STARLINK-3605,1 51805U 22017AP  23138.69281804  .00001396  00000-0  10578-3 0  9999,2 51805  53.2188 255.0130 0001263 104.3101 255.8032 15.08834460 69353,6917.897,95.438,540.636,538.889,0.0
51805.0,STARLINK-3605,PAYLOAD,2023-05-18 18:13:02,15.08835674,0.0001131,53.2183,254.7155,100.516,259.596,0.00013338,1.835e-05,0.0,0 STARLINK-3605,1 51805U 22017AP  23138.75905606  .00001835  00000-0  13338-3 0  9994,2 51805  53.2183 254.7155 0001131 100.5160 259.5960 15.08835674 69368,6917.894,95.438,540.541,538.976,0.0
51805.0,STARLINK-3605,PAYLOAD,2023-05-19 11:42:17,15.08818533,9.19e-05,53.217,251.4423,92.086,268.0238,0.00030509,4.568e-05,0.0,0 STARLINK-3605,1 51805U 22017AP  23139.48769771  .00004568  00000-0  30509-3 0  9991,2 51805  53.2170 251.4423 0000919  92.0860 268.0238 15.08818533 69471,6917.946,95.439,540.447,539.175,0.0
51805.0,STARLINK-3605,PAYLOAD,2023-05-20 16:19:11,15.08863192,0.0001094,53.2171,246.0884,89.898,270.2137,0.00023093,3.392e-05,0.0,0 STARLINK-3605,1 51805U 22017AP  23140.67999995  .00003392  00000-0  23093-3 0  9991,2 51805  53.2171 246.0884 0001094  89.8980 270.2137 15.08863192 69659,6917.81,95.436,540.431,538.918,0.0
51805.0,STARLINK-3605,PAYLOAD,2023-05-21 00:16:09,15.08843068,0.000159,53.2167,244.6033,73.8564,286.2603,4.7891e-05,4.74e-06,0.0,0 STARLINK-3605,1 51805U 22017AP  23141.01121533  .00000474  00000-0  47891-4 0  9996,2 51805  53.2167 244.6033 0001590  73.8564 286.2603 15.08843068 69707,6917.871,95.437,540.836,538.636,0.0
51805.0,STARLINK-3605,PAYLOAD,2023-05-21 11:23:51,15.08837957,0.0001038,53.216,242.5231,67.4804,292.6298,8.6419e-06,-1.5e-06,0.0,0 STARLINK-3605,1 51805U 22017AP  23141.47489648 -.00000150  00000-0  86419-5 0  9992,2 51805  53.2160 242.5231 0001038  67.4804 292.6298 15.08837957 69778,6917.887,95.438,540.47,539.034,0.0
51805.0,STARLINK-3605,PAYLOAD,2023-05-21 12:59:14,15.08840415,0.0001109,53.2161,242.2252,69.9589,290.1522,1.2653e-05,-8.6e-07,0.0,0 STARLINK-3605,1 51805U 22017AP  23141.54113557 -.00000086  00000-0  12653-4 0  9999,2 51805  53.2161 242.2252 0001109  69.9589 290.1522 15.08840415 69782,6917.879,95.438,540.511,538.977,0.0
51805.0,STARLINK-3605,PAYLOAD,2023-05-22 09:39:15,15.08837534,0.0001106,53.2161,238.3594,70.8661,289.245,-7.6771e-06,-4.1e-06,0.0,0 STARLINK-3605,1 51805U 22017AP  23142.40225809 -.00000410  00000-0 -76771-5 0  9993,2 51805  53.2161 238.3594 0001106  70.8661 289.2450 15.08837534 69918,6917.888,95.438,540.518,538.988,0.0
51805.0,STARLINK-3605,PAYLOAD,2023-05-22 12:50:01,15.08839231,0.0001028,53.2164,237.7638,77.5206,282.5902,2.0227e-05,3.4e-07,0.0,0 STARLINK-3605,1 51805U 22017AP  23142.53473685  .00000034  00000-0  20227-4 0  9998,2 51805  53.2164 237.7638 0001028  77.5206 282.5902 15.08839231 69931,6917.883,95.438,540.459,539.037,0.0
51805.0,STARLINK-3605,PAYLOAD,2023-05-23 12:40:48,15.0883368,0.0001109,53.2169,233.3032,75.8681,284.2435,5.3003e-05,5.56e-06,0.0,0 STARLINK-3605,1 51805U 22017AP  23143.52834361  .00000556  00000-0  53003-4 0  9997,2 51805  53.2169 233.3032 0001109  75.8681 284.2435 15.08833680 70084,6917.9,95.438,540.532,538.998,0.0
51805.0,STARLINK-3605,PAYLOAD,2023-05-24 06:10:03,15.08836127,0.0001127,53.2173,230.0317,78.0275,282.0843,0.00010578,1.396e-05,0.0,0 STARLINK-3605,1 51805U 22017AP  23144.25698361  .00001396  00000-0  10578-3 0  9998,2 51805  53.2173 230.0317 0001127  78.0275 282.0843 15.08836127 70193,6917.892,95.438,540.537,538.978,0.0
51805.0,STARLINK-3605,PAYLOAD,2023-05-25 15:33:08,15.08842864,0.0001203,53.2178,223.7887,96.7406,263.3723,0.00013269,1.825e-05,0.0,0 STARLINK-3605,1 51805U 22017AP  23145.64802072  .00001825  00000-0  13269-3 0  9995,2 51805  53.2178 223.7887 0001203  96.7406 263.3723 15.08842864 70405,6917.872,95.437,540.569,538.904,0.0
51805.0,STARLINK-3605,PAYLOAD,2023-05-26 04:16:14,15.08837899,0.0001439,53.217,221.4062,116.0759,244.0381,1.4069e-05,-6.4e-07,0.0,0 STARLINK-3605,1 51805U 22017AP  23146.17794757 -.00000064  00000-0  14069-4 0  9999,2 51805  53.2170 221.4062 0001439 116.0759 244.0381 15.08837899 70481,6917.887,95.438,540.747,538.756,0.0
